NORAD_CAT_ID,OBJECT_NAME,OBJECT_TYPE,EPOCH,MEAN_MOTION,ECCENTRICITY,INCLINATION,RA_OF_ASC_NODE,ARG_OF_PERICENTER,MEAN_ANOMALY,BSTAR,MEAN_MOTION_DOT,MEAN_MOTION_DDOT,TLE_LINE0,TLE_LINE1,TLE_LINE2,SEMIMAJOR_AXIS,PERIOD,APOGEE,PERIGEE,DECAYED
55748.0,STARLINK-5580,PAYLOAD,2024-04-12 19:31:43,14.98349615,0.0003166,70.0002,199.0479,272.4038,87.6759,0.00023619,2.728e-05,0.0,0 STARLINK-5580,1 55748U 23028H   24103.81369357  .00002728  00000-0  23619-3 0  9999,2 55748  70.0002 199.0479 0003166 272.4038  87.6759 14.98349615 61808,6950.132,96.106,574.198,569.797,0.0
55748.0,STARLINK-5580,PAYLOAD,2024-04-12 21:07:53,14.98321581,0.0003086,70.0004,198.879,277.584,82.4968,-5.2014e-05,-7.13e-06,0.0,0 STARLINK-5580,1 55748U 23028H   24103.88047738 -.00000713  00000-0 -52014-4 0  9998,2 55748  70.0004 198.8790 0003086 277.5840  82.4968 14.98321581 61819,6950.219,96.108,574.229,569.939,0.0
55748.0,STARLINK-5580,PAYLOAD,2024-04-12 22:44:01,14.98322849,0.0003061,70.0006,198.7111,278.9382,81.143,-2.91e-05,-4.4e-06,0.0,0 STARLINK-5580,1 55748U 23028H   24103.94723677 -.00000440  00000-0 -29100-4 0  9995,2 55748  70.0006 198.7111 0003061 278.9382  81.1430 14.98322849 61825,6950.215,96.107,574.207,569.953,0.0
55748.0,STARLINK-5580,PAYLOAD,2024-04-13 09:56:57,14.98328357,0.0003156,70.0004,197.5323,271.804,88.2757,2.938e-05,2.58e-06,0.0,0 STARLINK-5580,1 55748U 23028H   24104.41455210  .00000258  00000-0  29380-4 0  9998,2 55748  70.0004 197.5323 0003156 271.8040  88.2757 14.98328357 61890,6950.198,96.107,574.256,569.869,0.0
55748.0,STARLINK-5580,PAYLOAD,2024-04-13 14:45:21,14.98334835,0.000312,70.0005,197.0275,275.1171,84.9632,9.7214e-05,1.067e-05,0.0,0 STARLINK-5580,1 55748U 23028H   24104.61482694  .00001067  00000-0  97214-4 0  9996,2 55748  70.0005 197.0275 0003120 275.1171  84.9632 14.98334835 61922,6950.178,96.107,574.211,569.874,0.0
55748.0,STARLINK-5580,PAYLOAD,2024-04-13 19:33:44,14.98342752,0.0003119,70.0005,196.5224,273.4609,86.6193,0.00020043,2.3e-05,0.0,0 STARLINK-5580,1 55748U 23028H   24104.81509987  .00002300  00000-0  20043-3 0  9999,2 55748  70.0005 196.5224 0003119 273.4609  86.6193 14.98342752 61956,6950.153,96.106,574.186,569.851,0.0
55748.0,STARLINK-5580,PAYLOAD,2024-04-13 21:09:54,14.98318526,0.0003078,70.0002,196.3549,275.7015,84.3793,-7.8893e-05,-1.034e-05,0.0,0 STARLINK-5580,1 55748U 23028H   24104.88188082 -.00001034  00000-0 -78893-4 0  9997,2 55748  70.0002 196.3549 0003078 275.7015  84.3793 14.98318526 61965,6950.228,96.108,574.233,569.954,0.0
55748.0,STARLINK-5580,PAYLOAD,2024-04-14 11:35:06,14.98325368,0.0003214,70.0007,194.8391,270.6048,89.4743,-4.6783e-05,-6.51e-06,0.0,0 STARLINK-5580,1 55748U 23028H   24105.48271284 -.00000651  00000-0 -46783-4 0  9998,2 55748  70.0007 194.8391 0003214 270.6048  89.4743 14.98325368 62054,6950.207,96.107,574.306,569.838,0.0
55748.0,STARLINK-5580,PAYLOAD,2024-04-14 16:23:30,14.98336862,0.0003228,70.001,194.3347,272.303,87.776,0.00023519,2.715e-05,0.0,0 STARLINK-5580,1 55748U 23028H   24105.68298799  .00002715  00000-0  23519-3 0  9992,2 55748  70.0010 194.3347 0003228 272.3030  87.7760 14.98336862 62083,6950.172,96.107,574.28,569.793,0.0
55748.0,STARLINK-5580,PAYLOAD,2024-04-15 11:37:07,14.98330141,0.0002868,70.0026,192.3172,270.2208,89.8623,0.00043209,5.066e-05,0.0,0 STARLINK-5580,1 55748U 23028H   24106.48411438  .00005066  00000-0  43209-3 0  9998,2 55748  70.0026 192.3172 0002868 270.2208  89.8623 14.98330141 62206,6950.192,96.107,574.051,570.064,0.0
55748.0,STARLINK-5580,PAYLOAD,2024-04-15 13:13:15,14.98332201,0.0002872,70.0024,192.1482,275.691,84.3922,0.00037397,4.372e-05,0.0,0 STARLINK-5580,1 55748U 23028H   24106.55087453  .00004372  00000-0  37397-3 0  9992,2 55748  70.0024 192.1482 0002872 275.6910  84.3922 14.98332201 62212,6950.186,96.107,574.047,570.055,0.0
55748.0,STARLINK-5580,PAYLOAD,2024-04-15 16:25:31,14.98334824,0.0002819,70.0025,191.8127,261.9139,98.17,0.00041405,4.851e-05,0.0,0 STARLINK-5580,1 55748U 23028H   24106.68439264  .00004851  00000-0  41405-3 0  9994,2 55748  70.0025 191.8127 0002819 261.9139  98.1700 14.98334824 62239,6950.178,96.107,574.002,570.084,0.0
55748.0,STARLINK-5580,PAYLOAD,2024-04-16 11:39:07,14.98347265,0.0003001,70.0018,189.7915,270.0266,90.0549,0.00059333,6.997e-05,0.0,0 STARLINK-5580,1 55748U 23028H   24107.48550757  .00006997  00000-0  59333-3 0  9996,2 55748  70.0018 189.7915 0003001 270.0266  90.0549 14.98347265 62356,6950.14,96.106,574.09,569.919,0.0
55748.0,STARLINK-5580,PAYLOAD,2024-04-16 13:15:15,14.9834603,0.0003164,70.0014,189.6229,269.0377,91.0419,0.00058287,6.871e-05,0.0,0 STARLINK-5580,1 55748U 23028H   24107.55226809  .00006871  00000-0  58287-3 0  9990,2 55748  70.0014 189.6229 0003164 269.0377  91.0419 14.98346030 62367,6950.143,96.106,574.207,569.809,0.0
55748.0,STARLINK-5580,PAYLOAD,2024-04-16 14:51:23,14.98352704,0.0003179,70.0015,189.4544,270.5457,89.5338,0.00069723,8.241e-05,0.0,0 STARLINK-5580,1 55748U 23028H   24107.61902440  .00008241  00000-0  69723-3 0  9999,2 55748  70.0015 189.4544 0003179 270.5457  89.5338 14.98352704 62376,6950.123,96.106,574.197,569.778,0.0
55748.0,STARLINK-5580,PAYLOAD,2024-04-17 11:41:08,14.98343556,0.000281,70.0023,187.2674,265.4529,94.6309,0.00022912,2.643e-05,0.0,0 STARLINK-5580,1 55748U 23028H   24108.48690215  .00002643  00000-0  22912-3 0  9998,2 55748  70.0023 187.2674 0002810 265.4529  94.6309 14.98343556 62504,6950.151,96.106,573.969,570.063,0.0
55748.0,STARLINK-5580,PAYLOAD,2024-04-17 13:17:16,14.98340217,0.00027,70.0022,187.0976,259.4811,100.6044,0.00035063,4.094e-05,0.0,0 STARLINK-5580,1 55748U 23028H   24108.55366318  .00004094  00000-0  35063-3 0  9993,2 55748  70.0022 187.0976 0002700 259.4811 100.6044 14.98340217 62517,6950.161,96.106,573.903,570.15,0.0
55748.0,STARLINK-5580,PAYLOAD,2024-04-17 14:53:24,14.98346529,0.0002834,70.0021,186.9309,267.0771,93.0063,0.00027489,3.19e-05,0.0,0 STARLINK-5580,1 55748U 23028H   24108.62041935  .00003190  00000-0  27489-3 0  9995,2 55748  70.0021 186.9309 0002834 267.0771  93.0063 14.98346529 62521,6950.142,96.106,573.976,570.037,0.0
55748.0,STARLINK-5580,PAYLOAD,2024-04-18 11:43:10,14.9831824,0.0003298,70.0015,184.7413,275.7736,84.3047,-0.0003197,-3.904e-05,0.0,0 STARLINK-5580,1 55748U 23028H   24109.48831355 -.00003904  00000-0 -31970-3 0  9998,2 55748  70.0015 184.7413 0003298 275.7736  84.3047 14.98318240 62656,6950.229,96.108,574.386,569.802,0.0
55748.0,STARLINK-5580,PAYLOAD,2024-04-18 13:19:18,14.98319078,0.0003229,70.0015,184.5726,276.7685,83.3107,-0.00027272,-3.345e-05,0.0,0 STARLINK-5580,1 55748U 23028H   24109.55507391 -.00003345  00000-0 -27272-3 0  9995,2 55748  70.0015 184.5726 0003229 276.7685  83.3107 14.98319078 62666,6950.227,96.108,574.336,569.847,0.0
55748.0,STARLINK-5580,PAYLOAD,2024-04-19 03:44:30,14.98328748,0.0003199,70.002,183.0596,265.4642,94.6151,0.00013558,1.525e-05,0.0,0 STARLINK-5580,1 55748U 23028H   24110.15591306  .00001525  00000-0  13558-3 0  9990,2 55748  70.0020 183.0596 0003199 265.4642  94.6151 14.98328748 62753,6950.197,96.107,574.285,569.838,0.0
55748.0,STARLINK-5580,PAYLOAD,2024-04-19 11:45:10,14.98339866,0.0002499,70.0034,182.2179,255.5889,104.4992,0.00048531,5.704e-05,0.0,0 STARLINK-5580,1 55748U 23028H   24110.48971059  .00005704  00000-0  48531-3 0  9995,2 55748  70.0034 182.2179 0002499 255.5889 104.4992 14.98339866 62803,6950.162,96.106,573.764,570.291,0.0
55748.0,STARLINK-5580,PAYLOAD,2024-04-19 13:21:18,14.98343568,0.0002412,70.0039,182.0503,251.7026,108.3871,0.00058506,6.897e-05,0.0,0 STARLINK-5580,1 55748U 23028H   24110.55646901  .00006897  00000-0  58506-3 0  9995,2 55748  70.0039 182.0503 0002412 251.7026 108.3871 14.98343568 62817,6950.151,96.106,573.692,570.34,0.0
55748.0,STARLINK-5580,PAYLOAD,2024-04-19 14:57:26,14.98347605,0.0002647,70.0034,181.8819,258.6661,101.4201,0.00082307,9.746e-05,0.0,0 STARLINK-5580,1 55748U 23028H   24110.62322868  .00009746  00000-0  82307-3 0  9998,2 55748  70.0034 181.8819 0002647 258.6661 101.4201 14.98347605 62828,6950.138,96.106,573.843,570.164,0.0
55748.0,STARLINK-5580,PAYLOAD,2024-04-20 11:47:10,14.98348176,0.0002272,70.0034,179.6937,249.7295,110.362,0.00032725,3.816e-05,0.0,0 STARLINK-5580,1 55748U 23028H   24111.49109895  .00003816  00000-0  32725-3 0  9998,2 55748  70.0034 179.6937 0002272 249.7295 110.3620 14.98348176 62954,6950.137,96.106,573.581,570.423,0.0
55748.0,STARLINK-5580,PAYLOAD,2024-04-20 13:23:18,14.98354165,0.0002297,70.0035,179.5254,252.8725,107.2182,0.00012951,1.454e-05,0.0,0 STARLINK-5580,1 55748U 23028H   24111.55785430  .00001454  00000-0  12951-3 0  9995,2 55748  70.0035 179.5254 0002297 252.8725 107.2182 14.98354165 62960,6950.118,96.105,573.58,570.387,0.0
55748.0,STARLINK-5580,PAYLOAD,2024-04-21 03:48:32,14.98323558,0.0002428,70.0052,178.0126,238.2467,121.8456,-0.00019448,-2.412e-05,0.0,0 STARLINK-5580,1 55748U 23028H   24112.15871019 -.00002412  00000-0 -19448-3 0  9996,2 55748  70.0052 178.0126 0002428 238.2467 121.8456 14.98323558 63057,6950.213,96.107,573.765,570.39,0.0
55748.0,STARLINK-5580,PAYLOAD,2024-04-21 13:25:21,14.98304264,0.0002855,70.003,176.9998,247.5953,112.4903,-0.00071007,-8.549e-05,0.0,0 STARLINK-5580,1 55748U 23028H   24112.55927785 -.00008549  00000-0 -71007-3 0  9998,2 55748  70.0030 176.9998 0002855 247.5953 112.4903 14.98304264 63117,6950.272,96.109,574.122,570.153,0.0
55748.0,STARLINK-5580,PAYLOAD,2024-04-22 03:50:34,14.98321078,0.0002766,70.0027,175.485,252.9114,107.1742,1.9886e-05,1.44e-06,0.0,0 STARLINK-5580,1 55748U 23028H   24113.16011743  .00000144  00000-0  19886-4 0  9993,2 55748  70.0027 175.4850 0002766 252.9114 107.1742 14.98321078 63208,6950.22,96.108,574.008,570.163,0.0
55748.0,STARLINK-5580,PAYLOAD,2024-04-22 10:15:06,14.98327813,0.0002884,70.003,174.8126,240.2242,119.8631,0.00032584,3.797e-05,0.0,0 STARLINK-5580,1 55748U 23028H   24113.42715968  .00003797  00000-0  32584-3 0  9998,2 55748  70.0030 174.8126 0002884 240.2242 119.8631 14.98327813 63248,6950.2,96.107,574.069,570.06,0.0
